IRIDIUM 116             
1 43072U 17083C   24117.73781427  .00000171  00000+0  53935-4 0  9996
2 43072  86.3914 288.5848 0001945  92.6062 267.5356 14.34218161332166
IRIDIUM 130             
1 43073U 17083D   24118.19448051  .00000024  00000+0  14477-5 0  9997
2 43073  86.3923 288.5937 0002174  87.8673 272.2772 14.34218583332179
IRIDIUM 151             
1 43074U 17083E   24117.89003754  .00000071  00000+0  18452-4 0  9999
2 43074  86.3915 288.5610 0002292  99.6990 260.4465 14.34217546332157
IRIDIUM 134             
1 43075U 17083F   24118.20716655  .00000391  00000+0  13267-3 0  9990
2 43075  86.3918 288.4262 0002047  87.0224 273.1206 14.34218792332161
IRIDIUM 137             
1 43076U 17083G   24118.49892180  .00000188  00000+0  60026-4 0  9990
2 43076  86.3921 288.3811 0001967 103.4431 256.6984 14.34216482332273
IRIDIUM 141             
1 43077U 17083H   24118.49258275  .00000097  00000+0  27426-4 0  9998
2 43077  86.3915 288.2589 0002229  92.4199 267.7252 14.34218178332273
IRIDIUM 153             
1 43078U 17083J   24118.44476229  .00001090  00000+0  38217-3 0  9998
2 43078  86.3952 256.7137 0002592  91.8826 268.2667 14.34219256333373
IRIDIUM 131             
1 43079U 17083K   24117.92174919  .00000488  00000+0  16709-3 0  9994
2 43079  86.3919 288.6312 0002076  99.3774 260.7657 14.34218159332127
